[{"OBJECT_NAME":"JILIN-1 05","OBJECT_ID":"2017-074B","EPOCH":"2026-03-09T21:56:30.612480","MEAN_MOTION":15.3245271,"ECCENTRICITY":0.00045948,"INCLINATION":97.4781,"RA_OF_ASC_NODE":173.8936,"ARG_OF_PERICENTER":206.4038,"MEAN_ANOMALY":153.6971,"EPHEMERIS_TYPE":0,"CLASSIFICATION_TYPE":"U","NORAD_CAT_ID":43023,"ELEMENT_SET_NO":999,"REV_AT_EPOCH":45879,"BSTAR":0.00026108793,"MEAN_MOTION_DOT":8.104e-5,"MEAN_MOTION_DDOT":0},{"OBJECT_NAME":"STARLINK-35098","OBJECT_ID":"2025-195U","EPOCH":"2026-03-09T21:59:16.754496","MEAN_MOTION":15.30197709,"ECCENTRICITY":0.00010801,"INCLINATION":53.1595,"RA_OF_ASC_NODE":256.7514,"ARG_OF_PERICENTER":97.1483,"MEAN_ANOMALY":262.964,"EPHEMERIS_TYPE":0,"CLASSIFICATION_TYPE":"U","NORAD_CAT_ID":65476,"ELEMENT_SET_NO":999,"REV_AT_EPOCH":3001,"BSTAR":0.0010791254,"MEAN_MOTION_DOT":0.00031736,"MEAN_MOTION_DDOT":0}]
